KUIPER-00008            
1 63724U 25088A   26063.50001156 -.00559629  00000+0 -56503-1 0  9997
2 63724  51.8934 110.7704 0009895  80.2225 166.2607 14.92890784  5368
KUIPER-00009            
1 63725U 25088B   26063.38055903 -.00007314  00000+0 -93147-3 0  9999
2 63725  51.9032 130.1156 0007899  82.9053 277.2807 14.79897591 46993
KUIPER-00010            
1 63726U 25088C   26063.50783399  .00003798  00000+0  52701-3 0  9992
2 63726  51.9010 106.0054 0001002 100.8133 259.2943 14.79929828 46965
KUIPER-00011            
1 63727U 25088D   26063.33053679  .00006490  00000+0  87724-3 0  9990
2 63727  51.8994 114.3518 0000432  54.9938 305.1064 14.80040626 46968
KUIPER-00012            
1 63728U 25088E   26063.31328650 -.00086794  00000+0 -11401-1 0  9997
2 63728  51.9017  99.3548 0005459 191.5012 168.5827 14.80292114 47124
KUIPER-00013            
1 63729U 25088F   26063.37961343  .00049892  00000+0  65271-2 0  9997
2 63729  51.9013 131.5782 0005964  91.0677 269.0969 14.79910521 46784
KUIPER-00014            
1 63730U 25088G   26063.37776145  .00008278  00000+0  11119-2 0  9998
2 63730  51.9010 132.5556 0000448  17.0671 343.0306 14.79998661 46584
KUIPER-00015            
1 63731U 25088H   26063.46874443  .00009102  00000+0  11190-2 0  9995
2 63731  51.8987 141.5559 0009694  57.5941 302.5959 14.83591701 46922
KUIPER-00016            
1 63732U 25088J   26063.44280094  .00006952  00000+0  94174-3 0  9991
2 63732  51.9005 134.7997 0006613  59.4044 300.7570 14.79851497 46552
KUIPER-00018            
1 63733U 25088K   26063.50001156 -.00003926  00000+0 -48723-3 0  9998
2 63733  51.9016 123.5157 0001897 124.2231 115.7702 14.79850032  2969
KUIPER-00019            
1 63734U 25088L   26063.45624070  .00002253  00000+0  32432-3 0  9999
2 63734  51.9002 122.2381 0000539  89.6901 270.4123 14.79941945 46733
KUIPER-00020            
1 63735U 25088M   26063.38501924 -.00001194  00000+0 -12754-3 0  9994
2 63735  51.9015 126.5465 0006729  68.3435 291.8243 14.79863883 46870
KUIPER-00021            
1 63736U 25088N   26063.38335919  .00002756  00000+0  39047-3 0  9991
2 63736  51.9005 127.5500 0003206  80.9956 279.1369 14.79936506 46697
KUIPER-00023            
1 63737U 25088P   26063.38226387 -.00002130  00000+0 -25029-3 0  9993
2 63737  51.9010 129.0138 0008199  83.1456 277.0439 14.79895924 46978
KUIPER-00024            
1 63738U 25088Q   26063.32821779  .00003077  00000+0  43234-3 0  9991
2 63738  51.9035 116.8205 0000647  82.7123 277.3913 14.79939807 47263
KUIPER-00025            
1 63739U 25088R   26063.37284879  .00006827  00000+0  84948-3 0  9994
2 63739  51.9028 124.9966 0000250  37.5568 322.5413 14.83462078 47018
KUIPER-00027            
1 63740U 25088S   26063.46057399  .00008004  00000+0  10778-2 0  9999
2 63740  51.9010 118.7083 0000791  84.5147 275.5906 14.79927511 46844
