[{"OBJECT_NAME":"KUIPER-00008","OBJECT_ID":"2025-088A","EPOCH":"2026-03-04T12:00:00.998784","MEAN_MOTION":14.92890784,"ECCENTRICITY":0.0009895,"INCLINATION":51.8934,"RA_OF_ASC_NODE":110.7704,"ARG_OF_PERICENTER":80.2225,"MEAN_ANOMALY":166.2607,"EPHEMERIS_TYPE":0,"CLASSIFICATION_TYPE":"U","NORAD_CAT_ID":63724,"ELEMENT_SET_NO":999,"REV_AT_EPOCH":536,"BSTAR":-0.056503,"MEAN_MOTION_DOT":-0.00559629,"MEAN_MOTION_DDOT":0},{"OBJECT_NAME":"KUIPER-00009","OBJECT_ID":"2025-088B","EPOCH":"2026-03-04T09:08:00.300192","MEAN_MOTION":14.79897591,"ECCENTRICITY":0.0007899,"INCLINATION":51.9032,"RA_OF_ASC_NODE":130.1156,"ARG_OF_PERICENTER":82.9053,"MEAN_ANOMALY":277.2807,"EPHEMERIS_TYPE":0,"CLASSIFICATION_TYPE":"U","NORAD_CAT_ID":63725,"ELEMENT_SET_NO":999,"REV_AT_EPOCH":4699,"BSTAR":-0.00093147,"MEAN_MOTION_DOT":-7.314e-5,"MEAN_MOTION_DDOT":0},{"OBJECT_NAME":"KUIPER-00010","OBJECT_ID":"2025-088C","EPOCH":"2026-03-04T12:11:16.856736","MEAN_MOTION":14.79929828,"ECCENTRICITY":0.0001002,"INCLINATION":51.901,"RA_OF_ASC_NODE":106.0054,"ARG_OF_PERICENTER":100.8133,"MEAN_ANOMALY":259.2943,"EPHEMERIS_TYPE":0,"CLASSIFICATION_TYPE":"U","NORAD_CAT_ID":63726,"ELEMENT_SET_NO":999,"REV_AT_EPOCH":4696,"BSTAR":0.00052701,"MEAN_MOTION_DOT":3.798e-5,"MEAN_MOTION_DDOT":0},{"OBJECT_NAME":"KUIPER-00011","OBJECT_ID":"2025-088D","EPOCH":"2026-03-04T07:55:58.378656","MEAN_MOTION":14.80040626,"ECCENTRICITY":4.32e-5,"INCLINATION":51.8994,"RA_OF_ASC_NODE":114.3518,"ARG_OF_PERICENTER":54.9938,"MEAN_ANOMALY":305.1064,"EPHEMERIS_TYPE":0,"CLASSIFICATION_TYPE":"U","NORAD_CAT_ID":63727,"ELEMENT_SET_NO":999,"REV_AT_EPOCH":4696,"BSTAR":0.00087724,"MEAN_MOTION_DOT":6.49e-5,"MEAN_MOTION_DDOT":0},{"OBJECT_NAME":"KUIPER-00012","OBJECT_ID":"2025-088E","EPOCH":"2026-03-04T07:31:07.953600","MEAN_MOTION":14.80292114,"ECCENTRICITY":0.0005459,"INCLINATION":51.9017,"RA_OF_ASC_NODE":99.3548,"ARG_OF_PERICENTER":191.5012,"MEAN_ANOMALY":168.5827,"EPHEMERIS_TYPE":0,"CLASSIFICATION_TYPE":"U","NORAD_CAT_ID":63728,"ELEMENT_SET_NO":999,"REV_AT_EPOCH":4712,"BSTAR":-0.011401,"MEAN_MOTION_DOT":-0.00086794,"MEAN_MOTION_DDOT":0},{"OBJECT_NAME":"KUIPER-00013","OBJECT_ID":"2025-088F","EPOCH":"2026-03-04T09:06:38.600352","MEAN_MOTION":14.79910521,"ECCENTRICITY":0.0005964,"INCLINATION":51.9013,"RA_OF_ASC_NODE":131.5782,"ARG_OF_PERICENTER":91.0677,"MEAN_ANOMALY":269.0969,"EPHEMERIS_TYPE":0,"CLASSIFICATION_TYPE":"U","NORAD_CAT_ID":63729,"ELEMENT_SET_NO":999,"REV_AT_EPOCH":4678,"BSTAR":0.0065271,"MEAN_MOTION_DOT":0.00049892,"MEAN_MOTION_DDOT":0},{"OBJECT_NAME":"KUIPER-00014","OBJECT_ID":"2025-088G","EPOCH":"2026-03-04T09:03:58.589280","MEAN_MOTION":14.79998661,"ECCENTRICITY":4.48e-5,"INCLINATION":51.901,"RA_OF_ASC_NODE":132.5556,"ARG_OF_PERICENTER":17.0671,"MEAN_ANOMALY":343.0306,"EPHEMERIS_TYPE":0,"CLASSIFICATION_TYPE":"U","NORAD_CAT_ID":63730,"ELEMENT_SET_NO":999,"REV_AT_EPOCH":4658,"BSTAR":0.0011119,"MEAN_MOTION_DOT":8.278e-5,"MEAN_MOTION_DDOT":0},{"OBJECT_NAME":"KUIPER-00015","OBJECT_ID":"2025-088H","EPOCH":"2026-03-04T11:14:59.518752","MEAN_MOTION":14.83591701,"ECCENTRICITY":0.0009694,"INCLINATION":51.8987,"RA_OF_ASC_NODE":141.5559,"ARG_OF_PERICENTER":57.5941,"MEAN_ANOMALY":302.5959,"EPHEMERIS_TYPE":0,"CLASSIFICATION_TYPE":"U","NORAD_CAT_ID":63731,"ELEMENT_SET_NO":999,"REV_AT_EPOCH":4692,"BSTAR":0.001119,"MEAN_MOTION_DOT":9.102e-5,"MEAN_MOTION_DDOT":0},{"OBJECT_NAME":"KUIPER-00016","OBJECT_ID":"2025-088J","EPOCH":"2026-03-04T10:37:38.001216","MEAN_MOTION":14.79851497,"ECCENTRICITY":0.0006613,"INCLINATION":51.9005,"RA_OF_ASC_NODE":134.7997,"ARG_OF_PERICENTER":59.4044,"MEAN_ANOMALY":300.757,"EPHEMERIS_TYPE":0,"CLASSIFICATION_TYPE":"U","NORAD_CAT_ID":63732,"ELEMENT_SET_NO":999,"REV_AT_EPOCH":4655,"BSTAR":0.00094174,"MEAN_MOTION_DOT":6.952e-5,"MEAN_MOTION_DDOT":0},{"OBJECT_NAME":"KUIPER-00018","OBJECT_ID":"2025-088K","EPOCH":"2026-03-04T12:00:00.998784","MEAN_MOTION":14.79850032,"ECCENTRICITY":0.0001897,"INCLINATION":51.9016,"RA_OF_ASC_NODE":123.5157,"ARG_OF_PERICENTER":124.2231,"MEAN_ANOMALY":115.7702,"EPHEMERIS_TYPE":0,"CLASSIFICATION_TYPE":"U","NORAD_CAT_ID":63733,"ELEMENT_SET_NO":999,"REV_AT_EPOCH":296,"BSTAR":-0.00048723,"MEAN_MOTION_DOT":-3.926e-5,"MEAN_MOTION_DDOT":0},{"OBJECT_NAME":"KUIPER-00019","OBJECT_ID":"2025-088L","EPOCH":"2026-03-04T10:56:59.196480","MEAN_MOTION":14.79941945,"ECCENTRICITY":5.39e-5,"INCLINATION":51.9002,"RA_OF_ASC_NODE":122.2381,"ARG_OF_PERICENTER":89.6901,"MEAN_ANOMALY":270.4123,"EPHEMERIS_TYPE":0,"CLASSIFICATION_TYPE":"U","NORAD_CAT_ID":63734,"ELEMENT_SET_NO":999,"REV_AT_EPOCH":4673,"BSTAR":0.00032432,"MEAN_MOTION_DOT":2.253e-5,"MEAN_MOTION_DDOT":0},{"OBJECT_NAME":"KUIPER-00020","OBJECT_ID":"2025-088M","EPOCH":"2026-03-04T09:14:25.662336","MEAN_MOTION":14.79863883,"ECCENTRICITY":0.0006729,"INCLINATION":51.9015,"RA_OF_ASC_NODE":126.5465,"ARG_OF_PERICENTER":68.3435,"MEAN_ANOMALY":291.8243,"EPHEMERIS_TYPE":0,"CLASSIFICATION_TYPE":"U","NORAD_CAT_ID":63735,"ELEMENT_SET_NO":999,"REV_AT_EPOCH":4687,"BSTAR":-0.00012754,"MEAN_MOTION_DOT":-1.194e-5,"MEAN_MOTION_DDOT":0},{"OBJECT_NAME":"KUIPER-00021","OBJECT_ID":"2025-088N","EPOCH":"2026-03-04T09:12:02.234016","MEAN_MOTION":14.79936506,"ECCENTRICITY":0.0003206,"INCLINATION":51.9005,"RA_OF_ASC_NODE":127.55,"ARG_OF_PERICENTER":80.9956,"MEAN_ANOMALY":279.1369,"EPHEMERIS_TYPE":0,"CLASSIFICATION_TYPE":"U","NORAD_CAT_ID":63736,"ELEMENT_SET_NO":999,"REV_AT_EPOCH":4669,"BSTAR":0.00039047,"MEAN_MOTION_DOT":2.756e-5,"MEAN_MOTION_DDOT":0},{"OBJECT_NAME":"KUIPER-00023","OBJECT_ID":"2025-088P","EPOCH":"2026-03-04T09:10:27.598368","MEAN_MOTION":14.79895924,"ECCENTRICITY":0.0008199,"INCLINATION":51.901,"RA_OF_ASC_NODE":129.0138,"ARG_OF_PERICENTER":83.1456,"MEAN_ANOMALY":277.0439,"EPHEMERIS_TYPE":0,"CLASSIFICATION_TYPE":"U","NORAD_CAT_ID":63737,"ELEMENT_SET_NO":999,"REV_AT_EPOCH":4697,"BSTAR":-0.00025029,"MEAN_MOTION_DOT":-2.13e-5,"MEAN_MOTION_DDOT":0},{"OBJECT_NAME":"KUIPER-00024","OBJECT_ID":"2025-088Q","EPOCH":"2026-03-04T07:52:38.017056","MEAN_MOTION":14.79939807,"ECCENTRICITY":6.47e-5,"INCLINATION":51.9035,"RA_OF_ASC_NODE":116.8205,"ARG_OF_PERICENTER":82.7123,"MEAN_ANOMALY":277.3913,"EPHEMERIS_TYPE":0,"CLASSIFICATION_TYPE":"U","NORAD_CAT_ID":63738,"ELEMENT_SET_NO":999,"REV_AT_EPOCH":4726,"BSTAR":0.00043234,"MEAN_MOTION_DOT":3.077e-5,"MEAN_MOTION_DDOT":0},{"OBJECT_NAME":"KUIPER-00025","OBJECT_ID":"2025-088R","EPOCH":"2026-03-04T08:56:54.135456","MEAN_MOTION":14.83462078,"ECCENTRICITY":2.5e-5,"INCLINATION":51.9028,"RA_OF_ASC_NODE":124.9966,"ARG_OF_PERICENTER":37.5568,"MEAN_ANOMALY":322.5413,"EPHEMERIS_TYPE":0,"CLASSIFICATION_TYPE":"U","NORAD_CAT_ID":63739,"ELEMENT_SET_NO":999,"REV_AT_EPOCH":4701,"BSTAR":0.00084948,"MEAN_MOTION_DOT":6.827e-5,"MEAN_MOTION_DDOT":0},{"OBJECT_NAME":"KUIPER-00027","OBJECT_ID":"2025-088S","EPOCH":"2026-03-04T11:03:13.592736","MEAN_MOTION":14.79927511,"ECCENTRICITY":7.91e-5,"INCLINATION":51.901,"RA_OF_ASC_NODE":118.7083,"ARG_OF_PERICENTER":84.5147,"MEAN_ANOMALY":275.5906,"EPHEMERIS_TYPE":0,"CLASSIFICATION_TYPE":"U","NORAD_CAT_ID":63740,"ELEMENT_SET_NO":999,"REV_AT_EPOCH":4684,"BSTAR":0.0010778,"MEAN_MOTION_DOT":8.004e-5,"MEAN_MOTION_DDOT":0}]
